{
    "links": {
        "self": "http://www.neowsapp.com/rest/v1/neo/3514801?api_key=iIulBulltgU6a56xZRHN4H3l9WmuAYTsLGpBGhQ2"
    },
    "id": "3514801",
    "neo_reference_id": "3514801",
    "name": "(2010 GU5)",
    "designation": "2010 GU5",
    "nasa_jpl_url": "http://ssd.jpl.nasa.gov/sbdb.cgi?sstr=3514801",
    "absolute_magnitude_h": 24.6,
    "estimated_diameter": {
        "kilometers": {
            "estimated_diameter_min": 0.0319561887,
            "estimated_diameter_max": 0.0714562102
        },
        "meters": {
            "estimated_diameter_min": 31.9561886721,
            "estimated_diameter_max": 71.4562101727
        },
        "miles": {
            "estimated_diameter_min": 0.0198566489,
            "estimated_diameter_max": 0.0444008168
        },
        "feet": {
            "estimated_diameter_min": 104.8431420431,
            "estimated_diameter_max": 234.436392583
        }
    },
    "is_potentially_hazardous_asteroid": false,
    "close_approach_data": [
        {
            "close_approach_date": "2010-04-04",
            "close_approach_date_full": "2010-Apr-04 14:05",
            "epoch_date_close_approach": 1270389900000,
            "relative_velocity": {
                "kilometers_per_second": "7.35814685",
                "kilometers_per_hour": "26489.3286601441",
                "miles_per_hour": "16459.4386888546"
            },
            "miss_distance": {
                "astronomical": "0.0612926898",
                "lunar": "23.8428563322",
                "kilometers": "9169255.840650726",
                "miles": "5697511.3822669788"
            },
            "orbiting_body": "Earth"
        }
    ],
    "orbital_data": {
        "orbit_id": "11",
        "orbit_determination_date": "2017-04-06 08:57:57",
        "first_observation_date": "2010-04-04",
        "last_observation_date": "2010-04-10",
        "data_arc_in_days": 6,
        "observations_used": 64,
        "orbit_uncertainty": "8",
        "minimum_orbit_intersection": ".0609738",
        "jupiter_tisserand_invariant": "3.305",
        "epoch_osculation": "2455293.5",
        "eccentricity": ".5555512411419888",
        "semi_major_axis": "2.378822946907021",
        "inclination": "6.435831377544695",
        "ascending_node_longitude": "19.35028024793926",
        "orbital_period": "1340.113572403298",
        "perihelion_distance": "1.057264906295782",
        "perihelion_argument": "167.6467660066226",
        "aphelion_distance": "3.70038098751826",
        "perihelion_time": "2455284.730654950157",
        "mean_anomaly": "2.35574378392566",
        "mean_motion": ".2686339482066378",
        "equinox": "J2000",
        "orbit_class": {
            "orbit_class_type": "AMO",
            "orbit_class_description": "Near-Earth asteroid orbits similar to that of 1221 Amor",
            "orbit_class_range": "1.017 AU < q (perihelion) < 1.3 AU"
        }
    },
    "is_sentry_object": false
}